start=new Date('2022-04-14T00:00:00.000Z').valueOf();
sats=[{"APOAPSIS":"548.422","RCS_SIZE":"LARGE","GP_ID":"201174247","TIME_SYSTEM":"UTC","RA_OF_ASC_NODE":"183.1167","OBJECT_TYPE":"PAYLOAD","NORAD_CAT_ID":"47899","COUNTRY_CODE":"US","REV_AT_EPOCH":"6141","MEAN_MOTION_DOT":"0.00005688","OBJECT_NAME":"STARLINK-2359","MEAN_ANOMALY":"294.3301","TLE_LINE1":"1 47899U 21021AR  22103.70581405  .00005688  00000-0  40048-3 0  9997","ARG_OF_PERICENTER":"65.7868","OBJECT_ID":"2021-021AR","PERIOD":"95.592","PERIAPSIS":"546.022","SEMIMAJOR_AXIS":"6925.357","FILE":"3400454","MEAN_ELEMENT_THEORY":"SGP4","MEAN_MOTION":"15.06397218","ELEMENT_SET_NO":"999","DECAY_DATE":null,"ECCENTRICITY":"0.00017330","REF_FRAME":"TEME","TLE_LINE2":"2 47899  53.0536 183.1167 0001733  65.7868 294.3301 15.06397218 61418","BSTAR":"0.00040048000000","EPHEMERIS_TYPE":"0","CENTER_NAME":"EARTH","INCLINATION":"53.0536","EPOCH":"2022-04-13T16:56:22.333920","LAUNCH_DATE":"2021-03-14","SITE":"AFETR","MEAN_MOTION_DDOT":"0.0000000000000","CLASSIFICATION_TYPE":"U"},{"TLE_LINE1":"1 47900U 21021AS  22103.72975043  .00019378  00000-0  13153-2 0  9994","MEAN_MOTION_DOT":"0.00019378","MEAN_ANOMALY":"307.1868","OBJECT_NAME":"STARLINK-2360","MEAN_ELEMENT_THEORY":"SGP4","MEAN_MOTION":"15.06426547","ELEMENT_SET_NO":"999","ARG_OF_PERICENTER":"52.9270","OBJECT_ID":"2021-021AS","SEMIMAJOR_AXIS":"6925.267","PERIAPSIS":"546.003","PERIOD":"95.590","FILE":"3400454","TIME_SYSTEM":"UTC","RA_OF_ASC_NODE":"193.0116","OBJECT_TYPE":"PAYLOAD","NORAD_CAT_ID":"47900","APOAPSIS":"548.261","RCS_SIZE":"LARGE","GP_ID":"201175499","REV_AT_EPOCH":"6127","COUNTRY_CODE":"US","INCLINATION":"53.0539","MEAN_MOTION_DDOT":"0.0000000000000","CLASSIFICATION_TYPE":"U","EPOCH":"2022-04-13T17:30:50.437152","LAUNCH_DATE":"2021-03-14","SITE":"AFETR","BSTAR":"0.00131530000000","TLE_LINE2":"2 47900  53.0539 193.0116 0001630  52.9270 307.1868 15.06426547 61272","EPHEMERIS_TYPE":"0","CENTER_NAME":"EARTH","DECAY_DATE":null,"ECCENTRICITY":"0.00016300","REF_FRAME":"TEME"},{"GP_ID":"201142194","RCS_SIZE":"LARGE","APOAPSIS":"548.264","NORAD_CAT_ID":"47901","OBJECT_TYPE":"PAYLOAD","TIME_SYSTEM":"UTC","RA_OF_ASC_NODE":"184.0875","COUNTRY_CODE":"US","REV_AT_EPOCH":"6136","OBJECT_NAME":"STARLINK-2361","MEAN_ANOMALY":"304.8287","MEAN_MOTION_DOT":"0.00001549","TLE_LINE1":"1 47901U 21021AT  22103.48739093  .00001549  00000-0  12287-3 0  9990","FILE":"3399963","PERIOD":"95.592","PERIAPSIS":"546.144","SEMIMAJOR_AXIS":"6925.339","OBJECT_ID":"2021-021AT","ARG_OF_PERICENTER":"55.2846","ELEMENT_SET_NO":"999","MEAN_MOTION":"15.06403155","MEAN_ELEMENT_THEORY":"SGP4","REF_FRAME":"TEME","DECAY_DATE":null,"ECCENTRICITY":"0.00015310","CENTER_NAME":"EARTH","EPHEMERIS_TYPE":"0","TLE_LINE2":"2 47901  53.0552 184.0875 0001531  55.2846 304.8287 15.06403155 61364","BSTAR":"0.00012287000000","INCLINATION":"53.0552","SITE":"AFETR","LAUNCH_DATE":"2021-03-14","EPOCH":"2022-04-13T11:41:50.576352","CLASSIFICATION_TYPE":"U","MEAN_MOTION_DDOT":"0.0000000000000"},{"BSTAR":"0.00090348000000","TLE_LINE2":"2 47902  53.0542 202.9256 0001697  54.9508 305.1640 15.06393181 61231","CENTER_NAME":"EARTH","EPHEMERIS_TYPE":"0","DECAY_DATE":null,"ECCENTRICITY":"0.00016970","REF_FRAME":"TEME","MEAN_MOTION_DDOT":"0.0000000000000","CLASSIFICATION_TYPE":"U","EPOCH":"2022-04-13T17:52:07.422240","SITE":"AFETR","LAUNCH_DATE":"2021-03-14","INCLINATION":"53.0542","REV_AT_EPOCH":"6123","COUNTRY_CODE":"US","TIME_SYSTEM":"UTC","RA_OF_ASC_NODE":"202.9256","NORAD_CAT_ID":"47902","OBJECT_TYPE":"PAYLOAD","APOAPSIS":"548.410","GP_ID":"201174498","RCS_SIZE":"LARGE","MEAN_MOTION":"15.06393181","MEAN_ELEMENT_THEORY":"SGP4","ELEMENT_SET_NO":"999","PERIAPSIS":"546.059","PERIOD":"95.593","SEMIMAJOR_AXIS":"6925.369","ARG_OF_PERICENTER":"54.9508","OBJECT_ID":"2021-021AU","FILE":"3400454","TLE_LINE1":"1 47902U 21021AU  22103.74453035  .00013199  00000-0  90348-3 0  9997","OBJECT_NAME":"STARLINK-2362","MEAN_ANOMALY":"305.1640","MEAN_MOTION_DOT":"0.00013199"},{"APOAPSIS":"548.664","RCS_SIZE":"LARGE","GP_ID":"201174748","RA_OF_ASC_NODE":"183.1274","TIME_SYSTEM":"UTC","OBJECT_TYPE":"PAYLOAD","NORAD_CAT_ID":"47903","COUNTRY_CODE":"US","REV_AT_EPOCH":"6174","MEAN_MOTION_DOT":"0.00003032","OBJECT_NAME":"STARLINK-2363","MEAN_ANOMALY":"320.5337","TLE_LINE1":"1 47903U 21021AV  22103.70211950  .00003032  00000-0  22233-3 0  9995","ARG_OF_PERICENTER":"39.5805","OBJECT_ID":"2021-021AV","PERIAPSIS":"545.744","PERIOD":"95.592","SEMIMAJOR_AXIS":"6925.339","FILE":"3400454","MEAN_ELEMENT_THEORY":"SGP4","MEAN_MOTION":"15.06403062","ELEMENT_SET_NO":"999","DECAY_DATE":null,"ECCENTRICITY":"0.00021080","REF_FRAME":"TEME","BSTAR":"0.00022233000000","TLE_LINE2":"2 47903  53.0543 183.1274 0002108  39.5805 320.5337 15.06403062 61740","EPHEMERIS_TYPE":"0","CENTER_NAME":"EARTH","INCLINATION":"53.0543","EPOCH":"2022-04-13T16:51:03.124800","LAUNCH_DATE":"2021-03-14","SITE":"AFETR","MEAN_MOTION_DDOT":"0.0000000000000","CLASSIFICATION_TYPE":"U"},{"NORAD_CAT_ID":"47904","OBJECT_TYPE":"PAYLOAD","TIME_SYSTEM":"UTC","RA_OF_ASC_NODE":"183.1473","GP_ID":"201174999","RCS_SIZE":"LARGE","APOAPSIS":"548.338","REV_AT_EPOCH":"6138","COUNTRY_CODE":"US","TLE_LINE1":"1 47904U 21021AW  22103.69844273  .00012334  00000-0  84522-3 0  9998","OBJECT_NAME":"STARLINK-2364","MEAN_ANOMALY":"305.9433","MEAN_MOTION_DOT":"0.00012334","ELEMENT_SET_NO":"999","MEAN_MOTION":"15.06412095","MEAN_ELEMENT_THEORY":"SGP4","FILE":"3400454","PERIOD":"95.591","PERIAPSIS":"546.015","SEMIMAJOR_AXIS":"6925.311","ARG_OF_PERICENTER":"54.1711","OBJECT_ID":"2021-021AW","CENTER_NAME":"EARTH","EPHEMERIS_TYPE":"0","BSTAR":"0.00084522000000","TLE_LINE2":"2 47904  53.0549 183.1473 0001677  54.1711 305.9433 15.06412095 61387","REF_FRAME":"TEME","DECAY_DATE":null,"ECCENTRICITY":"0.00016770","INCLINATION":"53.0549","CLASSIFICATION_TYPE":"U","MEAN_MOTION_DDOT":"0.0000000000000","SITE":"AFETR","LAUNCH_DATE":"2021-03-14","EPOCH":"2022-04-13T16:45:45.451872"},{"OBJECT_NAME":"STARLINK-2365","MEAN_ANOMALY":"303.9560","MEAN_MOTION_DOT":"0.00007767","TLE_LINE1":"1 47905U 21021AX  22103.56207284  .00007767  00000-0  53985-3 0  9993","SEMIMAJOR_AXIS":"6925.366","PERIAPSIS":"546.126","PERIOD":"95.592","OBJECT_ID":"2021-021AX","ARG_OF_PERICENTER":"56.1580","FILE":"3400454","MEAN_MOTION":"15.06394443","MEAN_ELEMENT_THEORY":"SGP4","ELEMENT_SET_NO":"999","APOAPSIS":"548.335","GP_ID":"201175250","RCS_SIZE":"LARGE","RA_OF_ASC_NODE":"183.7617","TIME_SYSTEM":"UTC","NORAD_CAT_ID":"47905","OBJECT_TYPE":"PAYLOAD","COUNTRY_CODE":"US","REV_AT_EPOCH":"6149","INCLINATION":"53.0533","EPOCH":"2022-04-13T13:29:23.093376","SITE":"AFETR","LAUNCH_DATE":"2021-03-14","MEAN_MOTION_DDOT":"0.0000000000000","CLASSIFICATION_TYPE":"U","DECAY_DATE":null,"ECCENTRICITY":"0.00015950","REF_FRAME":"TEME","BSTAR":"0.00053985000000","TLE_LINE2":"2 47905  53.0533 183.7617 0001595  56.1580 303.9560 15.06394443 61499","CENTER_NAME":"EARTH","EPHEMERIS_TYPE":"0"},{"MEAN_MOTION_DDOT":"0.0000000000000","CLASSIFICATION_TYPE":"U","EPOCH":"2022-04-13T04:20:35.555712","SITE":"AFETR","LAUNCH_DATE":"2021-03-14","INCLINATION":"53.0403","BSTAR":"0.00001874100000","TLE_LINE2":"2 47906  53.0403  59.3703 0002168 294.1198  65.9594 15.76681948 63193","CENTER_NAME":"EARTH","EPHEMERIS_TYPE":"0","ECCENTRICITY":"0.00021680","DECAY_DATE":null,"REF_FRAME":"TEME","MEAN_MOTION":"15.76681948","MEAN_ELEMENT_THEORY":"SGP4","ELEMENT_SET_NO":"999","PERIAPSIS":"338.395","SEMIMAJOR_AXIS":"6717.986","PERIOD":"91.331","ARG_OF_PERICENTER":"294.1198","OBJECT_ID":"2021-021AY","FILE":"3399963","TLE_LINE1":"1 47906U 21021AY  22103.18096708  .00002406  00000-0  18741-4 0  9996","MEAN_ANOMALY":"65.9594","OBJECT_NAME":"STARLINK-2366","MEAN_MOTION_DOT":"0.00002406","REV_AT_EPOCH":"6319","COUNTRY_CODE":"US","RA_OF_ASC_NODE":"59.3703","TIME_SYSTEM":"UTC","NORAD_CAT_ID":"47906","OBJECT_TYPE":"PAYLOAD","APOAPSIS":"341.308","GP_ID":"201141449","RCS_SIZE":"LARGE"},{"REF_FRAME":"TEME","DECAY_DATE":null,"ECCENTRICITY":"0.00017290","EPHEMERIS_TYPE":"0","CENTER_NAME":"EARTH","BSTAR":"0.00095564000000","TLE_LINE2":"2 47907  53.0542 202.8240 0001729  58.1045 302.0111 15.06408800 61094","INCLINATION":"53.0542","LAUNCH_DATE":"2021-03-14","SITE":"AFETR","EPOCH":"2022-04-13T18:29:15.789696","CLASSIFICATION_TYPE":"U","MEAN_MOTION_DDOT":"0.0000000000000","RCS_SIZE":"LARGE","GP_ID":"201174248","APOAPSIS":"548.384","OBJECT_TYPE":"PAYLOAD","NORAD_CAT_ID":"47907","TIME_SYSTEM":"UTC","RA_OF_ASC_NODE":"202.8240","COUNTRY_CODE":"US","REV_AT_EPOCH":"6109","MEAN_MOTION_DOT":"0.00013985","OBJECT_NAME":"STARLINK-2367","MEAN_ANOMALY":"302.0111","TLE_LINE1":"1 47907U 21021AZ  22103.77032164  .00013985  00000-0  95564-3 0  9999","FILE":"3400454","ARG_OF_PERICENTER":"58.1045","OBJECT_ID":"2021-021AZ","PERIAPSIS":"545.989","SEMIMAJOR_AXIS":"6925.322","PERIOD":"95.592","ELEMENT_SET_NO":"999","MEAN_ELEMENT_THEORY":"SGP4","MEAN_MOTION":"15.06408800"},{"COUNTRY_CODE":"US","REV_AT_EPOCH":"6112","APOAPSIS":"548.264","GP_ID":"201175500","RCS_SIZE":"LARGE","TIME_SYSTEM":"UTC","RA_OF_ASC_NODE":"202.7973","NORAD_CAT_ID":"47908","OBJECT_TYPE":"PAYLOAD","PERIOD":"95.592","PERIAPSIS":"546.132","SEMIMAJOR_AXIS":"6925.333","ARG_OF_PERICENTER":"56.1993","OBJECT_ID":"2021-021BA","FILE":"3400454","MEAN_MOTION":"15.06405173","MEAN_ELEMENT_THEORY":"SGP4","ELEMENT_SET_NO":"999","MEAN_ANOMALY":"303.9143","OBJECT_NAME":"STARLINK-2368","MEAN_MOTION_DOT":"0.00016185","TLE_LINE1":"1 47908U 21021BA  22103.77769366  .00016185  00000-0  11028-2 0  9998","ECCENTRICITY":"0.00015390","DECAY_DATE":null,"REF_FRAME":"TEME","BSTAR":"0.00110280000000","TLE_LINE2":"2 47908  53.0536 202.7973 0001539  56.1993 303.9143 15.06405173 61128","CENTER_NAME":"EARTH","EPHEMERIS_TYPE":"0","EPOCH":"2022-04-13T18:39:52.732224","SITE":"AFETR","LAUNCH_DATE":"2021-03-14","MEAN_MOTION_DDOT":"0.0000000000000","CLASSIFICATION_TYPE":"U","INCLINATION":"53.0536"}];
